STARLINK-37220
1 68398U 26063U   26092.75002314 -.02283890  15546-2 -43589-2 0  9990
2 68398  97.2815 233.5577 0002091  66.0397 120.4043 16.00790582  2322
STARLINK-37175
1 68401U 26063X   26092.75002314 -.01858405  10462-2 -35380-2 0  9996
2 68401  97.2812 233.5601 0001605  70.4024 121.2648 16.00803270  2327
